[{"OBJECT_NAME":"STARLINK-1712","OBJECT_ID":"2020-070BB","EPOCH":"2025-11-07T07:54:42.864192","MEAN_MOTION":15.44447718,"ECCENTRICITY":0.0004354,"INCLINATION":53.0511,"RA_OF_ASC_NODE":321.1779,"ARG_OF_PERICENTER":265.521,"MEAN_ANOMALY":94.5299,"EPHEMERIS_TYPE":0,"CLASSIFICATION_TYPE":"U","NORAD_CAT_ID":46581,"ELEMENT_SET_NO":999,"REV_AT_EPOCH":28169,"BSTAR":0.00091464,"MEAN_MOTION_DOT":0.00042824,"MEAN_MOTION_DDOT":0},{"OBJECT_NAME":"STARLINK-1728","OBJECT_ID":"2020-070BC","EPOCH":"2025-11-07T13:52:04.918080","MEAN_MOTION":15.29024592,"ECCENTRICITY":0.0001782,"INCLINATION":53.051,"RA_OF_ASC_NODE":342.5397,"ARG_OF_PERICENTER":66.0482,"MEAN_ANOMALY":294.0703,"EPHEMERIS_TYPE":0,"CLASSIFICATION_TYPE":"U","NORAD_CAT_ID":46582,"ELEMENT_SET_NO":999,"REV_AT_EPOCH":28141,"BSTAR":0.0026677,"MEAN_MOTION_DOT":0.0007664,"MEAN_MOTION_DDOT":0},{"OBJECT_NAME":"STARLINK-1736","OBJECT_ID":"2020-070BF","EPOCH":"2025-11-07T20:00:03.000384","MEAN_MOTION":15.36438059,"ECCENTRICITY":0.0001903,"INCLINATION":53.0542,"RA_OF_ASC_NODE":341.4911,"ARG_OF_PERICENTER":43.9232,"MEAN_ANOMALY":88.7853,"EPHEMERIS_TYPE":0,"CLASSIFICATION_TYPE":"U","NORAD_CAT_ID":46585,"ELEMENT_SET_NO":999,"REV_AT_EPOCH":577,"BSTAR":0.0029237,"MEAN_MOTION_DOT":0.00106563,"MEAN_MOTION_DDOT":0},{"OBJECT_NAME":"STARLINK-1746","OBJECT_ID":"2020-070BJ","EPOCH":"2025-11-07T12:09:43.493760","MEAN_MOTION":15.35113391,"ECCENTRICITY":0.0002603,"INCLINATION":53.0533,"RA_OF_ASC_NODE":342.1844,"ARG_OF_PERICENTER":44.5051,"MEAN_ANOMALY":315.616,"EPHEMERIS_TYPE":0,"CLASSIFICATION_TYPE":"U","NORAD_CAT_ID":46588,"ELEMENT_SET_NO":999,"REV_AT_EPOCH":28141,"BSTAR":0.0029712,"MEAN_MOTION_DOT":0.00103755,"MEAN_MOTION_DDOT":0},{"OBJECT_NAME":"STARLINK-1716","OBJECT_ID":"2020-073C","EPOCH":"2025-11-07T20:00:03.000384","MEAN_MOTION":15.36609153,"ECCENTRICITY":0.0004671,"INCLINATION":53.0547,"RA_OF_ASC_NODE":64.9177,"ARG_OF_PERICENTER":339.0538,"MEAN_ANOMALY":258.7416,"EPHEMERIS_TYPE":0,"CLASSIFICATION_TYPE":"U","NORAD_CAT_ID":46672,"ELEMENT_SET_NO":999,"REV_AT_EPOCH":563,"BSTAR":0.0044276,"MEAN_MOTION_DOT":0.00163738,"MEAN_MOTION_DDOT":0},{"OBJECT_NAME":"STARLINK-1718","OBJECT_ID":"2020-073E","EPOCH":"2025-11-07T16:54:30.304224","MEAN_MOTION":15.06390681,"ECCENTRICITY":0.0001819,"INCLINATION":53.054,"RA_OF_ASC_NODE":69.2294,"ARG_OF_PERICENTER":89.8721,"MEAN_ANOMALY":270.2476,"EPHEMERIS_TYPE":0,"CLASSIFICATION_TYPE":"U","NORAD_CAT_ID":46674,"ELEMENT_SET_NO":999,"REV_AT_EPOCH":27874,"BSTAR":-8.2338e-6,"MEAN_MOTION_DOT":-4.04e-6,"MEAN_MOTION_DDOT":0},{"OBJECT_NAME":"STARLINK-1775","OBJECT_ID":"2020-073M","EPOCH":"2025-11-07T20:00:03.000384","MEAN_MOTION":15.4055092,"ECCENTRICITY":0.0001499,"INCLINATION":53.0557,"RA_OF_ASC_NODE":81.2369,"ARG_OF_PERICENTER":67.2046,"MEAN_ANOMALY":231.3237,"EPHEMERIS_TYPE":0,"CLASSIFICATION_TYPE":"U","NORAD_CAT_ID":46681,"ELEMENT_SET_NO":999,"REV_AT_EPOCH":572,"BSTAR":0.0025069,"MEAN_MOTION_DOT":0.00104431,"MEAN_MOTION_DDOT":0},{"OBJECT_NAME":"STARLINK-1781","OBJECT_ID":"2020-073R","EPOCH":"2025-11-07T18:30:44.907840","MEAN_MOTION":15.06392103,"ECCENTRICITY":0.0001429,"INCLINATION":53.054,"RA_OF_ASC_NODE":84.1976,"ARG_OF_PERICENTER":87.0846,"MEAN_ANOMALY":273.0307,"EPHEMERIS_TYPE":0,"CLASSIFICATION_TYPE":"U","NORAD_CAT_ID":46685,"ELEMENT_SET_NO":999,"REV_AT_EPOCH":27853,"BSTAR":-5.3649e-5,"MEAN_MOTION_DOT":-1.08e-5,"MEAN_MOTION_DDOT":0},{"OBJECT_NAME":"STARLINK-1784","OBJECT_ID":"2020-073T","EPOCH":"2025-11-07T15:59:46.299840","MEAN_MOTION":15.30386477,"ECCENTRICITY":0.0001894,"INCLINATION":53.0585,"RA_OF_ASC_NODE":47.5051,"ARG_OF_PERICENTER":75.9587,"MEAN_ANOMALY":284.1622,"EPHEMERIS_TYPE":0,"CLASSIFICATION_TYPE":"U","NORAD_CAT_ID":46687,"ELEMENT_SET_NO":999,"REV_AT_EPOCH":27904,"BSTAR":0.00087766,"MEAN_MOTION_DOT":0.00025877,"MEAN_MOTION_DDOT":0},{"OBJECT_NAME":"STARLINK-1788","OBJECT_ID":"2020-073V","EPOCH":"2025-11-07T18:37:19.829280","MEAN_MOTION":15.36370318,"ECCENTRICITY":9.37e-5,"INCLINATION":53.0551,"RA_OF_ASC_NODE":82.2011,"ARG_OF_PERICENTER":31.4776,"MEAN_ANOMALY":328.6282,"EPHEMERIS_TYPE":0,"CLASSIFICATION_TYPE":"U","NORAD_CAT_ID":46689,"ELEMENT_SET_NO":999,"REV_AT_EPOCH":27981,"BSTAR":0.0036023,"MEAN_MOTION_DOT":0.00131532,"MEAN_MOTION_DDOT":0},{"OBJECT_NAME":"STARLINK-1789","OBJECT_ID":"2020-073W","EPOCH":"2025-11-07T18:27:39.304224","MEAN_MOTION":15.46037737,"ECCENTRICITY":0.0009578,"INCLINATION":53.051,"RA_OF_ASC_NODE":47.3012,"ARG_OF_PERICENTER":298.1907,"MEAN_ANOMALY":61.8131,"EPHEMERIS_TYPE":0,"CLASSIFICATION_TYPE":"U","NORAD_CAT_ID":46690,"ELEMENT_SET_NO":999,"REV_AT_EPOCH":27905,"BSTAR":0.0031003,"MEAN_MOTION_DOT":0.00156828,"MEAN_MOTION_DDOT":0},{"OBJECT_NAME":"STARLINK-1790","OBJECT_ID":"2020-073X","EPOCH":"2025-11-07T20:00:03.000384","MEAN_MOTION":15.38646285,"ECCENTRICITY":9.34e-5,"INCLINATION":53.0548,"RA_OF_ASC_NODE":66.706,"ARG_OF_PERICENTER":42.5918,"MEAN_ANOMALY":38.1839,"EPHEMERIS_TYPE":0,"CLASSIFICATION_TYPE":"U","NORAD_CAT_ID":46691,"ELEMENT_SET_NO":999,"REV_AT_EPOCH":583,"BSTAR":0.0021847,"MEAN_MOTION_DOT":0.00085204,"MEAN_MOTION_DDOT":0},{"OBJECT_NAME":"STARLINK-1795","OBJECT_ID":"2020-073AC","EPOCH":"2025-11-07T20:00:03.000384","MEAN_MOTION":15.36746693,"ECCENTRICITY":0.0002235,"INCLINATION":53.0549,"RA_OF_ASC_NODE":46.443,"ARG_OF_PERICENTER":24.7793,"MEAN_ANOMALY":301.1604,"EPHEMERIS_TYPE":0,"CLASSIFICATION_TYPE":"U","NORAD_CAT_ID":46696,"ELEMENT_SET_NO":999,"REV_AT_EPOCH":583,"BSTAR":0.0026996,"MEAN_MOTION_DOT":0.00099255,"MEAN_MOTION_DDOT":0},{"OBJECT_NAME":"STARLINK-1797","OBJECT_ID":"2020-073AE","EPOCH":"2025-11-07T19:22:54.891264","MEAN_MOTION":15.31402073,"ECCENTRICITY":0.0001435,"INCLINATION":53.0543,"RA_OF_ASC_NODE":67.0127,"ARG_OF_PERICENTER":353.3711,"MEAN_ANOMALY":6.7269,"EPHEMERIS_TYPE":0,"CLASSIFICATION_TYPE":"U","NORAD_CAT_ID":46698,"ELEMENT_SET_NO":999,"REV_AT_EPOCH":27878,"BSTAR":0.0039566,"MEAN_MOTION_DOT":0.00123317,"MEAN_MOTION_DDOT":0},{"OBJECT_NAME":"STARLINK-1799","OBJECT_ID":"2020-073AF","EPOCH":"2025-11-07T20:00:03.000384","MEAN_MOTION":15.4017841,"ECCENTRICITY":0.0001985,"INCLINATION":53.0556,"RA_OF_ASC_NODE":65.8422,"ARG_OF_PERICENTER":1.8961,"MEAN_ANOMALY":300.0984,"EPHEMERIS_TYPE":0,"CLASSIFICATION_TYPE":"U","NORAD_CAT_ID":46699,"ELEMENT_SET_NO":999,"REV_AT_EPOCH":577,"BSTAR":0.0041832,"MEAN_MOTION_DOT":0.00173985,"MEAN_MOTION_DDOT":0},{"OBJECT_NAME":"STARLINK-1800","OBJECT_ID":"2020-073AG","EPOCH":"2025-11-07T19:50:57.702336","MEAN_MOTION":15.37753018,"ECCENTRICITY":0.0004529,"INCLINATION":53.0528,"RA_OF_ASC_NODE":78.5347,"ARG_OF_PERICENTER":307.0949,"MEAN_ANOMALY":52.9639,"EPHEMERIS_TYPE":0,"CLASSIFICATION_TYPE":"U","NORAD_CAT_ID":46700,"ELEMENT_SET_NO":999,"REV_AT_EPOCH":27862,"BSTAR":0.0036659,"MEAN_MOTION_DOT":0.00140176,"MEAN_MOTION_DDOT":0},{"OBJECT_NAME":"STARLINK-1801","OBJECT_ID":"2020-073AH","EPOCH":"2025-11-07T20:00:03.000384","MEAN_MOTION":15.38816974,"ECCENTRICITY":0.0001448,"INCLINATION":53.0557,"RA_OF_ASC_NODE":66.3035,"ARG_OF_PERICENTER":28.9335,"MEAN_ANOMALY":196.8122,"EPHEMERIS_TYPE":0,"CLASSIFICATION_TYPE":"U","NORAD_CAT_ID":46701,"ELEMENT_SET_NO":999,"REV_AT_EPOCH":583,"BSTAR":0.0043841,"MEAN_MOTION_DOT":0.00174391,"MEAN_MOTION_DDOT":0}]
