STARLINK-1712           
1 46581U 20070BB  25311.32966278  .00042824  00000+0  91464-3 0  9994
2 46581  53.0511 321.1779 0004354 265.5210  94.5299 15.44447718281697
STARLINK-1728           
1 46582U 20070BC  25311.57783470  .00076640  00000+0  26677-2 0  9999
2 46582  53.0510 342.5397 0001782  66.0482 294.0703 15.29024592281418
STARLINK-1736           
1 46585U 20070BF  25311.83336806  .00106563  00000+0  29237-2 0  9991
2 46585  53.0542 341.4911 0001903  43.9232  88.7853 15.36438059  5770
STARLINK-1746           
1 46588U 20070BJ  25311.50675340  .00103755  00000+0  29712-2 0  9995
2 46588  53.0533 342.1844 0002603  44.5051 315.6160 15.35113391281418
STARLINK-1716           
1 46672U 20073C   25311.83336806  .00163738  00000+0  44276-2 0  9998
2 46672  53.0547  64.9177 0004671 339.0538 258.7416 15.36609153  5630
STARLINK-1718           
1 46674U 20073E   25311.70451741 -.00000404  00000+0 -82338-5 0  9998
2 46674  53.0540  69.2294 0001819  89.8721 270.2476 15.06390681278747
STARLINK-1775           
1 46681U 20073M   25311.83336806  .00104431  00000+0  25069-2 0  9992
2 46681  53.0557  81.2369 0001499  67.2046 231.3237 15.40550920  5725
STARLINK-1781           
1 46685U 20073R   25311.77135310 -.00001080  00000+0 -53649-4 0  9991
2 46685  53.0540  84.1976 0001429  87.0846 273.0307 15.06392103278539
STARLINK-1784           
1 46687U 20073T   25311.66650810  .00025877  00000+0  87766-3 0  9992
2 46687  53.0585  47.5051 0001894  75.9587 284.1622 15.30386477279045
STARLINK-1788           
1 46689U 20073V   25311.77592395  .00131532  00000+0  36023-2 0  9994
2 46689  53.0551  82.2011 0000937  31.4776 328.6282 15.36370318279810
STARLINK-1789           
1 46690U 20073W   25311.76920491  .00156828  00000+0  31003-2 0  9995
2 46690  53.0510  47.3012 0009578 298.1907  61.8131 15.46037737279059
STARLINK-1790           
1 46691U 20073X   25311.83336806  .00085204  00000+0  21847-2 0  9999
2 46691  53.0548  66.7060 0000934  42.5918  38.1839 15.38646285  5839
STARLINK-1795           
1 46696U 20073AC  25311.83336806  .00099255  00000+0  26996-2 0  9995
2 46696  53.0549  46.4430 0002235  24.7793 301.1604 15.36746693  5835
STARLINK-1797           
1 46698U 20073AE  25311.80757976  .00123317  00000+0  39566-2 0  9993
2 46698  53.0543  67.0127 0001435 353.3711   6.7269 15.31402073278782
STARLINK-1799           
1 46699U 20073AF  25311.83336806  .00173985  00000+0  41832-2 0  9997
2 46699  53.0556  65.8422 0001985   1.8961 300.0984 15.40178410  5779
STARLINK-1800           
1 46700U 20073AG  25311.82705674  .00140176  00000+0  36659-2 0  9999
2 46700  53.0528  78.5347 0004529 307.0949  52.9639 15.37753018278627
STARLINK-1801           
1 46701U 20073AH  25311.83336806  .00174391  00000+0  43841-2 0  9995
2 46701  53.0557  66.3035 0001448  28.9335 196.8122 15.38816974  5832
